[{"OBJECT_NAME":"STARLINK-34690","OBJECT_ID":"2025-152X","EPOCH":"2026-03-09T13:45:52.955712","MEAN_MOTION":15.0565091,"ECCENTRICITY":0.0002429,"INCLINATION":97.6023,"RA_OF_ASC_NODE":285.4597,"ARG_OF_PERICENTER":72.7737,"MEAN_ANOMALY":287.3755,"EPHEMERIS_TYPE":0,"CLASSIFICATION_TYPE":"U","NORAD_CAT_ID":64863,"ELEMENT_SET_NO":999,"REV_AT_EPOCH":3540,"BSTAR":0.00022893,"MEAN_MOTION_DOT":3.244e-5,"MEAN_MOTION_DDOT":0},{"OBJECT_NAME":"COSMOS 970 DEB","OBJECT_ID":"1977-121BW","EPOCH":"2026-03-09T04:53:14.846784","MEAN_MOTION":14.37544219,"ECCENTRICITY":0.03554347,"INCLINATION":65.6599,"RA_OF_ASC_NODE":142.1451,"ARG_OF_PERICENTER":356.6534,"MEAN_ANOMALY":33.036,"EPHEMERIS_TYPE":0,"CLASSIFICATION_TYPE":"U","NORAD_CAT_ID":20032,"ELEMENT_SET_NO":999,"REV_AT_EPOCH":64092,"BSTAR":0.00097582793,"MEAN_MOTION_DOT":6.002e-5,"MEAN_MOTION_DDOT":0}]
